GALAXY 25 (G-25)        
1 24812C 97026A   23051.00000000 -.00000156  00000-0  00000-0 0   514
2 24812   4.3072  81.2210 0007467 303.8984 219.7484  0.99031025    13
GALAXY 25 (G-25)        
1 24812C 97026A   23054.00000000 -.00000039  00000-0  00000-0 0   540
2 24812   4.3155  81.1449 0007528 305.3515 207.9014  0.99031100    15
INTELSAT 5 (IS-5)   [PM]
1 24916C 97046A   23031.70833333  .00000034  00000-0  00000-0 0   311
2 24916   7.7171  59.4605 0005160 249.0475 243.2989  1.00268406    14
INTELSAT 5 (IS-5)       
1 24916C 97046A   23051.00000000  .00000034  00000-0  00000-0 0   515
2 24916   7.7545  59.3044 0005578 216.3090  40.1962  1.00270334    16
INTELSAT 5 (IS-5)       
1 24916C 97046A   23054.00000000  .00000034  00000-0  00000-0 0   541
2 24916   7.7632  59.2547 0005770 216.7876  42.7238  1.00271090    14
GALAXY 11 (G-11)        
1 26038C 99071A   23051.00000000 -.00000072  00000-0  00000-0 0   515
2 26038   3.6513  84.7962 0000739   3.3299 328.4110  1.00269967    10
GALAXY 11 (G-11)        
1 26038C 99071A   23054.00000000 -.00000072  00000-0  00000-0 0   541
2 26038   3.6587  84.7062 0000489 358.0452 336.7346  1.00270754    14
INTELSAT 9 (IS-9)       
1 26451C 00043A   23051.00000000 -.00000191  00000-0  00000-0 0   517
2 26451   7.7394  59.4656 0000563 342.7463  57.4166  1.00276193    17
INTELSAT 9 (IS-9)   [PM]
1 26451C 00043A   23051.70056713 -.00000191  00000-0  00000-0 0   516
2 26451   7.7408  59.4775 0003587 199.3768  93.7144  1.00267963    12
INTELSAT 9 (IS-9)       
1 26451C 00043A   23054.00000000 -.00000191  00000-0  00000-0 0   543
2 26451   7.7482  59.4200 0000785 318.6409  84.5291  1.00275802    14
INTELSAT 1R (IS-1R)     
1 26608C 00072A   23051.00000000 -.00000047  00000-0  00000-0 0   513
2 26608   5.0333  77.5107 0000807 302.4461 286.7808  1.00271067    14
INTELSAT 1R (IS-1R)     
1 26608C 00072A   23054.00000000 -.00000047  00000-0  00000-0 0   549
2 26608   5.0424  77.4126 0000803 272.8257 319.4509  1.00272306    13
INTELSAT 10 (IS-10)     
1 26766C 01019A   23051.00000000  .00000127  00000-0  00000-0 0   518
2 26766   6.1639  71.2262 0003476 227.6837  28.5570  1.00271740    19
INTELSAT 10 (IS-10) [PM]
1 26766C 01019A   23051.36115741  .00000127  00000-0  00000-0 0   516
2 26766   6.1647  71.2117 0000942 272.7637 113.8441  1.00272324    15
INTELSAT 10 (IS-10)     
1 26766C 01019A   23054.00000000  .00000127  00000-0  00000-0 0   544
2 26766   6.1723  71.1637 0003499 228.9098  30.3347  1.00269803    16
INTELSAT 901            
1 26824C 01024A   23051.00000000 -.00000087  00000-0  00000-0 0   515
2 26824   0.0567 283.4604 0000862  72.5890 126.1022  1.00269337    12
INTELSAT 901            
1 26824C 01024A   23054.00000000 -.00000112  00000-0  00000-0 0   540
2 26824   0.0550 277.7438 0001148  71.1696 136.1907  1.00270546    19
INTELSAT 902            
1 26900C 01039A   23051.00000000 -.00000192  00000-0  00000-0 0   513
2 26900   3.0286  86.3100 0001367 233.6517 139.5738  1.00270024    13
INTELSAT 902            
1 26900C 01039A   23054.00000000 -.00000192  00000-0  00000-0 0   549
2 26900   3.0361  86.2025 0001680 227.9411 148.3460  1.00273097    12
INTELSAT 902        [PM]
1 26900C 01039A   23058.88125000 -.00000192  00000-0  00000-0 0   581
2 26900   3.0520  86.1327 0001810 234.1066 104.3173  1.00273060    17
INTELSAT 904            
1 27380C 02007A   23051.00000000 -.00000123  00000-0  00000-0 0   516
2 27380   3.8564  83.3276 0002349 253.4217 143.3902  1.00272656    11
INTELSAT 904            
1 27380C 02007A   23054.00000000 -.00000123  00000-0  00000-0 0   542
2 27380   3.8639  83.2357 0002604 253.8907 145.9687  1.00272889    13
INTELSAT 904        [PM]
1 27380C 02007A   23056.83965278 -.00000123  00000-0  00000-0 0   564
2 27380   3.8738  83.1833 0002610 248.0480  96.9402  1.00273028    16
INTELSAT 905            
1 27438C 02027A   23051.00000000 -.00000094  00000-0  00000-0 0   519
2 27438   3.6795  84.0474 0002018 245.8793 155.2171  1.00272205    14
INTELSAT 905        [PM]
1 27438C 02027A   23051.65396991 -.00000094  00000-0  00000-0 0   517
2 27438   3.6805  84.0318 0002786 228.7970  48.3984  1.00270269    14
INTELSAT 905            
1 27438C 02027A   23054.00000000 -.00000094  00000-0  00000-0 0   545
2 27438   3.6870  83.9551 0002254 247.3883 156.7551  1.00272701    10
GALAXY 3C (G-3C)        
1 27445C 02030A   23051.00000000 -.00000062  00000-0  00000-0 0   516
2 27445   0.6018  92.5476 0000547 260.1534  62.0775  1.00269685    14
GALAXY 3C (G-3C)        
1 27445C 02030A   23054.00000000 -.00000062  00000-0  00000-0 0   542
2 27445   0.6079  92.1654 0000751 229.7498  95.8113  1.00271112    10
INTELSAT 906        [PM]
1 27513C 02041A   23043.94593750  .00000105  00000-0  00000-0 0   435
2 27513   2.6801  87.6726 0002968 223.8255 235.9056  1.00269979    19
INTELSAT 906            
1 27513C 02041A   23051.00000000  .00000105  00000-0  00000-0 0   511
2 27513   2.6988  87.7232 0002964 230.9907 255.0710  1.00269597    13
INTELSAT 906            
1 27513C 02041A   23054.00000000  .00000105  00000-0  00000-0 0   547
2 27513   2.7065  87.6086 0003179 231.5167 257.6090  1.00271381    13
GALAXY 12 (G-12)        
1 27715C 03013B   23051.00000000  .00000149  00000-0  00000-0 0   513
2 27715   3.8894  83.0094 0001891 245.0688  52.5806  1.00270343    19
GALAXY 12 (G-12)        
1 27715C 03013B   23054.00000000  .00000149  00000-0  00000-0 0   549
2 27715   3.8971  82.9152 0002090 238.7739  61.9209  1.00269599    18
GALAXY 12 (G-12)    [PM]
1 27715C 03013B   23059.59256944  .00000149  00000-0  00000-0 0   593
2 27715   3.9144  82.8597 0002818 263.6354 255.9547  1.00270986    13
GALAXY 23 (G-23)        
1 27854C 03034A   23051.00000000  .00000103  00000-0  00000-0 0   510
2 27854   0.0611 109.1963 0002389 239.7572  39.6951  1.00270047    17
GALAXY 23 (G-23)        
1 27854C 03034A   23054.00000000  .00000103  00000-0  00000-0 0   546
2 27854   0.0675 105.8460 0002637 240.6316  45.1232  1.00271459    17
GALAXY 23 (G-23)    [PM]
1 27854C 03034A   23056.60971065  .00000103  00000-0  00000-0 0   564
2 27854   0.0755 102.6888 0002800 245.0956 265.8887  1.00270866    14
GALAXY 13               
1 27954C 03044A   23051.00000000  .00000133  00000-0  00000-0 0   515
2 27954   0.0063 140.2831 0001648 198.3108  44.0403  1.00269958    12
GALAXY 13               
1 27954C 03044A   23054.00000000  .00000137  00000-0  00000-0 0   545
2 27954   0.0402 281.4708 0001949  50.9803  53.1394  1.00273302    17
INTELSAT 10-02          
1 28358C 04022A   23051.00000000  .00000068  00000-0  00000-0 0   518
2 28358   0.0533 288.0280 0000838  66.7009 153.9237  1.00268768    13
INTELSAT 10-02          
1 28358C 04022A   23054.00000000  .00000045  00000-0  00000-0 0   549
2 28358   0.0498 282.8731 0001063  60.2618 168.4629  1.00270034    17
GALAXY 28 (G-28)        
1 28702C 05022A   23051.00000000 -.00000095  00000-0  00000-0 0   513
2 28702   0.1633  92.5822 0003071 250.7960  77.2664  1.00269571    16
GALAXY 28 (G-28)    [PM]
1 28702C 05022A   23052.96655093 -.00000095  00000-0  00000-0 0   528
2 28702   0.1676  91.9780 0003182 246.9430  71.6142  1.00271809    17
GALAXY 28 (G-28)        
1 28702C 05022A   23054.00000000 -.00000095  00000-0  00000-0 0   549
2 28702   0.1706  91.5052 0003284 247.6253  84.4656  1.00271996    12
GALAXY 14 (G-14)        
1 28790C 05030A   23051.00000000  .00000245  00000-0  00000-0 0   515
2 28790   1.8892  89.6418 0001808 250.9243 201.9661  1.00270601    17
GALAXY 14 (G-14)        
1 28790C 05030A   23054.00000000  .00000246  00000-0  00000-0 0   542
2 28790   1.8962  89.4917 0002011 247.5693 208.4331  1.00273200    19
GALAXY 14 (G-14)    [PM]
1 28790C 05030A   23056.16250000  .00000245  00000-0  00000-0 0   569
2 28790   1.9034  89.4131 0002303 236.3442 280.3862  1.00268961    16
GALAXY 15 (G-15)        
1 28884C 05041A   23051.00000000  .00000048  00000-0  00000-0 0   512
2 28884   0.4438  93.5348 0004260 228.1751  75.6533  1.00320524    18
GALAXY 15 (G-15)        
1 28884C 05041A   23054.00000000  .00000044  00000-0  00000-0 0   544
2 28884   0.4508  93.0672 0004532 227.4276  80.3598  1.00321628    17
GALAXY 16 (G-16)        
1 29236C 06023A   23051.00000000 -.00000037  00000-0  00000-0 0   514
2 29236   0.0706 272.5741 0002475  59.8127  78.2568  1.00270446    16
GALAXY 16 (G-16)    [PM]
1 29236C 06023A   23053.98864583 -.00000037  00000-0  00000-0 0   539
2 29236   0.0645 272.4367 0002738  59.2190  77.8367  1.00271538    12
GALAXY 16 (G-16)        
1 29236C 06023A   23054.00000000 -.00000037  00000-0  00000-0 0   540
2 29236   0.0644 272.4826 0002742  59.2223  81.8862  1.00271558    10
GALAXY 17 (G-17)        
1 31307C 07016B   23051.00000000 -.00000084  00000-0  00000-0 0   511
2 31307   0.0092 129.1111 0001802 182.1077 107.4195  1.00270298    17
GALAXY 17 (G-17)    [PM]
1 31307C 07016B   23053.97142361 -.00000084  00000-0  00000-0 0   538
2 31307   0.0137 119.7435 0002080 187.4051 104.1188  1.00273765    18
GALAXY 17 (G-17)        
1 31307C 07016B   23054.00000000 -.00000084  00000-0  00000-0 0   547
2 31307   0.0138 119.6554 0002084 187.7630 114.1649  1.00273834    10
INTELSAT 11 (IS-11)     
1 32253C 07044B   23051.00000000 -.00000179  00000-0  00000-0 0   518
2 32253   0.4176  94.1243 0002789 244.4351 128.0798  1.00269788    14
INTELSAT 11 (IS-11) [PM]
1 32253C 07044B   23052.85738426 -.00000179  00000-0  00000-0 0   523
2 32253   0.4214  93.8737 0002865 238.3704  84.8719  1.00272549    11
INTELSAT 11 (IS-11)     
1 32253C 07044B   23054.00000000 -.00000179  00000-0  00000-0 0   544
2 32253   0.4244  93.6379 0002978 239.6887 136.2602  1.00272796    12
HORIZONS-2              
1 32388C 07063B   23051.00000000 -.00000311  00000-0  00000-0 0   516
2 32388   0.0001 149.8730 0001987 194.9878  90.9742  1.00270030    15
